QIANFAN-57              
1 62787U 25016C   25209.58293813  .00000080  00000+0  10499-3 0  9994
2 62787  88.9858 117.3361 0002087  92.0854 268.0536 13.50955104 28682
QIANFAN-58              
1 62788U 25016D   25209.55418190  .00000152  00000+0  21688-3 0  9991
2 62788  88.9827 117.2134 0015411  26.6793 333.5148 13.50954295 28728
QIANFAN-59              
1 62789U 25016E   25209.56659447  .00000145  00000+0  20621-3 0  9993
2 62789  88.9851 117.2501 0016397  29.1942 331.0122 13.50958729 28723
QIANFAN-60              
1 62790U 25016F   25209.63224290  .00000148  00000+0  21087-3 0  9997
2 62790  88.9832 117.2489 0016799  26.7958 333.4058 13.50967054 28719
QIANFAN-61              
1 62791U 25016G   25209.57071347  .00000138  00000+0  19482-3 0  9999
2 62791  88.9900 117.3197 0016202  26.0064 334.1898 13.50956586 28722
QIANFAN-62              
1 62792U 25016H   25209.57464800  .00000148  00000+0  21005-3 0  9995
2 62792  88.9846 117.2619 0017609  25.7793 334.4231 13.50955535 28713
QIANFAN-63              
1 62793U 25016J   25209.58699442  .00000159  00000+0  22705-3 0  9999
2 62793  88.9853 117.2001 0017534  29.9483 330.2667 13.50952616 28754
QIANFAN-64              
1 62794U 25016K   25209.57874151  .00000145  00000+0  20529-3 0  9998
2 62794  88.9839 117.1994 0015206  25.0830 335.1057 13.50961222 28745
